[{"OBJECT_NAME":"STARLINK-32912","OBJECT_ID":"2025-037M","EPOCH":"2026-03-09T22:33:46.780128","MEAN_MOTION":14.98375815,"ECCENTRICITY":0.00031393,"INCLINATION":70.0026,"RA_OF_ASC_NODE":353.661,"ARG_OF_PERICENTER":270.3794,"MEAN_ANOMALY":89.7005,"EPHEMERIS_TYPE":0,"CLASSIFICATION_TYPE":"U","NORAD_CAT_ID":63088,"ELEMENT_SET_NO":999,"REV_AT_EPOCH":5874,"BSTAR":0.0025884925,"MEAN_MOTION_DOT":0.00030966,"MEAN_MOTION_DDOT":0},{"OBJECT_NAME":"FALCON 1 R\/B","OBJECT_ID":"2009-037B","EPOCH":"2026-03-08T17:35:48.909408","MEAN_MOTION":14.88730418,"ECCENTRICITY":0.00374904,"INCLINATION":9.0437,"RA_OF_ASC_NODE":137.3099,"ARG_OF_PERICENTER":171.2098,"MEAN_ANOMALY":188.8755,"EPHEMERIS_TYPE":0,"CLASSIFICATION_TYPE":"U","NORAD_CAT_ID":35579,"ELEMENT_SET_NO":999,"REV_AT_EPOCH":90049,"BSTAR":0.00039887201,"MEAN_MOTION_DOT":4.571e-5,"MEAN_MOTION_DDOT":0}]
